start=new Date('2023-06-16T00:00:00.000Z').valueOf();
sats=[{"REF_FRAME":"TEME","TIME_SYSTEM":"UTC","TLE_LINE1":"1 55428U 23014AP  23166.46875087 -.00065294  00000-0 -54531-2 0  9995","REV_AT_EPOCH":"2203","PERIAPSIS":"568.685","ARG_OF_PERICENTER":"263.2653","ELEMENT_SET_NO":"999","MEAN_ELEMENT_THEORY":"SGP4","MEAN_ANOMALY":"96.8176","DECAY_DATE":null,"LAUNCH_DATE":"2023-01-31","EPOCH":"2023-06-15T11:15:00.075168","FILE":"3933820","NORAD_CAT_ID":"55428","MEAN_MOTION_DDOT":"0.0000000000000","RCS_SIZE":"LARGE","COUNTRY_CODE":"US","EPHEMERIS_TYPE":"0","TLE_LINE2":"2 55428  69.9995  81.5157 0002900 263.2653  96.8176 14.98769076 22039","MEAN_MOTION":"14.98769076","RA_OF_ASC_NODE":"81.5157","BSTAR":"-0.00545310000000","OBJECT_TYPE":"PAYLOAD","SEMIMAJOR_AXIS":"6948.835","CENTER_NAME":"EARTH","APOAPSIS":"572.716","SITE":"AFWTR","CLASSIFICATION_TYPE":"U","ECCENTRICITY":"0.00029000","OBJECT_NAME":"STARLINK-5064","OBJECT_ID":"2023-014AP","GP_ID":"233991228","PERIOD":"96.079","MEAN_MOTION_DOT":"-0.00065294","INCLINATION":"69.9995"},{"MEAN_MOTION_DOT":"-0.00025295","INCLINATION":"70.0024","PERIOD":"96.105","GP_ID":"234023937","OBJECT_ID":"2023-014AQ","OBJECT_NAME":"STARLINK-5645","ECCENTRICITY":"0.00030180","CLASSIFICATION_TYPE":"U","SITE":"AFWTR","APOAPSIS":"574.071","CENTER_NAME":"EARTH","SEMIMAJOR_AXIS":"6950.109","OBJECT_TYPE":"PAYLOAD","BSTAR":"-0.00211830000000","MEAN_MOTION":"14.98357164","RA_OF_ASC_NODE":"80.5176","EPHEMERIS_TYPE":"0","TLE_LINE2":"2 55429  70.0024  80.5176 0003018 264.4374 330.6791 14.98357164  1300","COUNTRY_CODE":"US","RCS_SIZE":"LARGE","MEAN_MOTION_DDOT":"0.0000000000000","NORAD_CAT_ID":"55429","EPOCH":"2023-06-15T20:00:01.000224","FILE":"3934071","LAUNCH_DATE":"2023-01-31","DECAY_DATE":null,"MEAN_ANOMALY":"330.6791","MEAN_ELEMENT_THEORY":"SGP4","ARG_OF_PERICENTER":"264.4374","ELEMENT_SET_NO":"999","REV_AT_EPOCH":"130","PERIAPSIS":"569.876","TLE_LINE1":"1 55429U 23014AQ  23166.83334491 -.00025295  00000-0 -21183-2 0  9990","TIME_SYSTEM":"UTC","REF_FRAME":"TEME"},{"TLE_LINE1":"1 55430U 23014AR  23166.24755323  .00001829  00000-0  16106-3 0  9993","TIME_SYSTEM":"UTC","REF_FRAME":"TEME","ELEMENT_SET_NO":"999","ARG_OF_PERICENTER":"267.6862","PERIAPSIS":"570.082","REV_AT_EPOCH":"2151","EPOCH":"2023-06-15T05:56:28.599072","FILE":"3933820","LAUNCH_DATE":"2023-01-31","DECAY_DATE":null,"MEAN_ELEMENT_THEORY":"SGP4","MEAN_ANOMALY":"92.3967","COUNTRY_CODE":"US","RCS_SIZE":"LARGE","MEAN_MOTION_DDOT":"0.0000000000000","NORAD_CAT_ID":"55430","SEMIMAJOR_AXIS":"6950.218","BSTAR":"0.00016106000000","OBJECT_TYPE":"PAYLOAD","RA_OF_ASC_NODE":"101.8063","MEAN_MOTION":"14.98321819","EPHEMERIS_TYPE":"0","TLE_LINE2":"2 55430  69.9998 101.8063 0002879 267.6862  92.3967 14.98321819 21512","SITE":"AFWTR","APOAPSIS":"574.084","CENTER_NAME":"EARTH","OBJECT_NAME":"STARLINK-5642","ECCENTRICITY":"0.00028790","CLASSIFICATION_TYPE":"U","INCLINATION":"69.9998","MEAN_MOTION_DOT":"0.00001829","PERIOD":"96.108","GP_ID":"233990727","OBJECT_ID":"2023-014AR"},{"NORAD_CAT_ID":"55431","MEAN_MOTION_DDOT":"0.0000000000000","RCS_SIZE":"LARGE","COUNTRY_CODE":"US","MEAN_ELEMENT_THEORY":"SGP4","MEAN_ANOMALY":"279.4401","DECAY_DATE":null,"LAUNCH_DATE":"2023-01-31","EPOCH":"2023-06-15T20:00:01.000224","FILE":"3934071","REV_AT_EPOCH":"130","PERIAPSIS":"570.137","ARG_OF_PERICENTER":"270.6646","ELEMENT_SET_NO":"999","REF_FRAME":"TEME","TIME_SYSTEM":"UTC","TLE_LINE1":"1 55431U 23014AS  23166.83334491 -.00025489  00000-0 -21346-2 0  9999","OBJECT_ID":"2023-014AS","GP_ID":"234023448","PERIOD":"96.105","MEAN_MOTION_DOT":"-0.00025489","INCLINATION":"70.0025","CLASSIFICATION_TYPE":"U","ECCENTRICITY":"0.00026300","OBJECT_NAME":"STARLINK-5643","CENTER_NAME":"EARTH","APOAPSIS":"573.793","SITE":"AFWTR","TLE_LINE2":"2 55431  70.0025  80.5691 0002630 270.6646 279.4401 14.98359999  1302","EPHEMERIS_TYPE":"0","MEAN_MOTION":"14.98359999","RA_OF_ASC_NODE":"80.5691","OBJECT_TYPE":"PAYLOAD","BSTAR":"-0.00213460000000","SEMIMAJOR_AXIS":"6950.100"},{"INCLINATION":"70.0000","MEAN_MOTION_DOT":"-0.00000141","PERIOD":"96.107","GP_ID":"234024197","OBJECT_ID":"2023-014AT","ECCENTRICITY":"0.00029400","OBJECT_NAME":"STARLINK-5637","CLASSIFICATION_TYPE":"U","SITE":"AFWTR","CENTER_NAME":"EARTH","APOAPSIS":"574.094","SEMIMAJOR_AXIS":"6950.185","OBJECT_TYPE":"PAYLOAD","BSTAR":"-0.00000402710000","MEAN_MOTION":"14.98332499","RA_OF_ASC_NODE":"100.4750","TLE_LINE2":"2 55432  70.0000 100.4750 0002940 269.7986  90.2837 14.98332499 21595","EPHEMERIS_TYPE":"0","COUNTRY_CODE":"US","MEAN_MOTION_DDOT":"0.0000000000000","RCS_SIZE":"LARGE","NORAD_CAT_ID":"55432","FILE":"3934071","EPOCH":"2023-06-15T18:51:33.645312","LAUNCH_DATE":"2023-01-31","DECAY_DATE":null,"MEAN_ELEMENT_THEORY":"SGP4","MEAN_ANOMALY":"90.2837","ARG_OF_PERICENTER":"269.7986","ELEMENT_SET_NO":"999","REV_AT_EPOCH":"2159","PERIAPSIS":"570.007","TLE_LINE1":"1 55432U 23014AT  23166.78580608 -.00000141  00000-0 -40271-5 0  9996","TIME_SYSTEM":"UTC","REF_FRAME":"TEME"},{"COUNTRY_CODE":"US","MEAN_MOTION_DDOT":"0.0000000000000","RCS_SIZE":"LARGE","NORAD_CAT_ID":"55433","FILE":"3933820","EPOCH":"2023-06-15T07:26:35.898144","LAUNCH_DATE":"2023-01-31","DECAY_DATE":null,"MEAN_ELEMENT_THEORY":"SGP4","MEAN_ANOMALY":"91.2681","ELEMENT_SET_NO":"999","ARG_OF_PERICENTER":"268.8128","PERIAPSIS":"569.934","REV_AT_EPOCH":"2152","TLE_LINE1":"1 55433U 23014AU  23166.31013771  .00000180  00000-0  22915-4 0  9993","TIME_SYSTEM":"UTC","REF_FRAME":"TEME","MEAN_MOTION_DOT":"0.00000180","INCLINATION":"69.9994","PERIOD":"96.107","GP_ID":"233990477","OBJECT_ID":"2023-014AU","ECCENTRICITY":"0.00030570","OBJECT_NAME":"STARLINK-5570","CLASSIFICATION_TYPE":"U","SITE":"AFWTR","CENTER_NAME":"EARTH","APOAPSIS":"574.184","SEMIMAJOR_AXIS":"6950.194","BSTAR":"0.00002291500000","OBJECT_TYPE":"PAYLOAD","RA_OF_ASC_NODE":"101.6236","MEAN_MOTION":"14.98329593","EPHEMERIS_TYPE":"0","TLE_LINE2":"2 55433  69.9994 101.6236 0003057 268.8128  91.2681 14.98329593 21527"},{"COUNTRY_CODE":"US","NORAD_CAT_ID":"55434","RCS_SIZE":"LARGE","MEAN_MOTION_DDOT":"0.0000000000000","LAUNCH_DATE":"2023-01-31","DECAY_DATE":null,"EPOCH":"2023-06-15T06:20:31.352064","FILE":"3933820","MEAN_ANOMALY":"87.5890","MEAN_ELEMENT_THEORY":"SGP4","ARG_OF_PERICENTER":"272.4949","ELEMENT_SET_NO":"999","REV_AT_EPOCH":"2151","PERIAPSIS":"570.130","TIME_SYSTEM":"UTC","TLE_LINE1":"1 55434U 23014AV  23166.26425176  .00000096  00000-0  15832-4 0  9990","REF_FRAME":"TEME","PERIOD":"96.107","MEAN_MOTION_DOT":"0.00000096","INCLINATION":"70.0004","OBJECT_ID":"2023-014AV","GP_ID":"233990227","CLASSIFICATION_TYPE":"U","ECCENTRICITY":"0.00027920","OBJECT_NAME":"STARLINK-5621","CENTER_NAME":"EARTH","APOAPSIS":"574.011","SITE":"AFWTR","BSTAR":"0.00001583200000","OBJECT_TYPE":"PAYLOAD","SEMIMAJOR_AXIS":"6950.206","EPHEMERIS_TYPE":"0","TLE_LINE2":"2 55434  70.0004 101.8653 0002792 272.4949  87.5890 14.98325825 21518","MEAN_MOTION":"14.98325825","RA_OF_ASC_NODE":"101.8653"},{"SEMIMAJOR_AXIS":"6950.201","BSTAR":"0.00001214700000","OBJECT_TYPE":"PAYLOAD","MEAN_MOTION":"14.98327497","RA_OF_ASC_NODE":"101.8376","TLE_LINE2":"2 55435  69.9991 101.8376 0003085 268.7517  91.3289 14.98327497 20575","EPHEMERIS_TYPE":"0","SITE":"AFWTR","APOAPSIS":"574.210","CENTER_NAME":"EARTH","ECCENTRICITY":"0.00030850","OBJECT_NAME":"STARLINK-5626","CLASSIFICATION_TYPE":"U","MEAN_MOTION_DOT":"0.00000052","INCLINATION":"69.9991","PERIOD":"96.107","GP_ID":"233993813","OBJECT_ID":"2023-014AW","TLE_LINE1":"1 55435U 23014AW  23166.25590255  .00000052  00000-0  12147-4 0  9999","TIME_SYSTEM":"UTC","REF_FRAME":"TEME","ARG_OF_PERICENTER":"268.7517","ELEMENT_SET_NO":"999","REV_AT_EPOCH":"2057","PERIAPSIS":"569.921","EPOCH":"2023-06-15T06:08:29.980320","FILE":"3933886","DECAY_DATE":null,"LAUNCH_DATE":"2023-01-31","MEAN_ELEMENT_THEORY":"SGP4","MEAN_ANOMALY":"91.3289","COUNTRY_CODE":"US","MEAN_MOTION_DDOT":"0.0000000000000","RCS_SIZE":"LARGE","NORAD_CAT_ID":"55435"},{"SITE":"AFWTR","APOAPSIS":"574.045","CENTER_NAME":"EARTH","SEMIMAJOR_AXIS":"6950.203","BSTAR":"-0.00000626260000","OBJECT_TYPE":"PAYLOAD","RA_OF_ASC_NODE":"102.0486","MEAN_MOTION":"14.98326583","TLE_LINE2":"2 55436  70.0003 102.0486 0002844 269.2352  90.8481 14.98326583 21500","EPHEMERIS_TYPE":"0","MEAN_MOTION_DOT":"-0.00000168","INCLINATION":"70.0003","PERIOD":"96.107","GP_ID":"233991229","OBJECT_ID":"2023-014AX","ECCENTRICITY":"0.00028440","OBJECT_NAME":"STARLINK-5640","CLASSIFICATION_TYPE":"U","ELEMENT_SET_NO":"999","ARG_OF_PERICENTER":"269.2352","PERIAPSIS":"570.092","REV_AT_EPOCH":"2150","TLE_LINE1":"1 55436U 23014AX  23166.20166532 -.00000168  00000-0 -62626-5 0  9990","TIME_SYSTEM":"UTC","REF_FRAME":"TEME","COUNTRY_CODE":"US","MEAN_MOTION_DDOT":"0.0000000000000","RCS_SIZE":"LARGE","NORAD_CAT_ID":"55436","FILE":"3933820","EPOCH":"2023-06-15T04:50:23.883648","LAUNCH_DATE":"2023-01-31","DECAY_DATE":null,"MEAN_ELEMENT_THEORY":"SGP4","MEAN_ANOMALY":"90.8481"},{"MEAN_ELEMENT_THEORY":"SGP4","MEAN_ANOMALY":"117.8683","FILE":"3933820","EPOCH":"2023-06-15T06:31:40.836288","DECAY_DATE":null,"LAUNCH_DATE":"2023-01-31","MEAN_MOTION_DDOT":"0.0000000000000","RCS_SIZE":"LARGE","NORAD_CAT_ID":"55437","COUNTRY_CODE":"US","REF_FRAME":"TEME","TLE_LINE1":"1 55437U 23014AY  23166.27200042  .00016160  00000-0  12774-2 0  9996","TIME_SYSTEM":"UTC","PERIAPSIS":"561.004","REV_AT_EPOCH":"2152","ELEMENT_SET_NO":"999","ARG_OF_PERICENTER":"242.1937","OBJECT_NAME":"STARLINK-5080","ECCENTRICITY":"0.00053350","CLASSIFICATION_TYPE":"U","GP_ID":"233989977","OBJECT_ID":"2023-014AY","INCLINATION":"69.9991","MEAN_MOTION_DOT":"0.00016160","PERIOD":"95.955","RA_OF_ASC_NODE":"101.4891","MEAN_MOTION":"15.00709811","EPHEMERIS_TYPE":"0","TLE_LINE2":"2 55437  69.9991 101.4891 0005335 242.1937 117.8683 15.00709811 21523","SEMIMAJOR_AXIS":"6942.843","BSTAR":"0.00127740000000","OBJECT_TYPE":"PAYLOAD","SITE":"AFWTR","CENTER_NAME":"EARTH","APOAPSIS":"568.412"}];
